#aV2012 12  5  0  0  0.00000000     288 DD+AD WGS84 FIT  NGA
## 1717 259200.00000000   300.00000000 56266 0.0000000000000
+   31     1  2  3  4  5  6  7  8  9 10 11 12 13 14 15 16 17
+         18 19 20 21 22 23 24 25 26 28 29 30 31 32  0  0  0
+          0  0  0  0  0  0  0  0  0  0  0  0  0  0  0  0  0
+          0  0  0  0  0  0  0  0  0  0  0  0  0  0  0  0  0
+          0  0  0  0  0  0  0  0  0  0  0  0  0  0  0  0  0
++         2  2  2  2  2  2  2  2  2  2  2  2  2  2  2  2  2
++         2  2  2  2  2  2  2  2  2  2  2  2  2  2  2  0  0
++         0  0  0  0  0  0  0  0  0  0  0  0  0  0  0  0  0
++         0  0  0  0  0  0  0  0  0  0  0  0  0  0  0  0  0
++         0  0  0  0  0  0  0  0  0  0  0  0  0  0  0  0  0
%c cc cc ccc ccc cccc cccc cccc cccc ccccc ccccc ccccc ccccc
%c cc cc ccc ccc cccc cccc cccc cccc ccccc ccccc ccccc ccccc
%f  0.0000000  0.000000000  0.00000000000  0.000000000000000
%f  0.0000000  0.000000000  0.00000000000  0.000000000000000
%i    0    0    0    0      0      0      0      0         0
%i    0    0    0    0      0      0      0      0         0
/*      NGA, ST. LOUIS,MO.                                  
/*   EPHEMERIS COMPUTED FROM  1 DAYS OF DATA
/*   EPOCHA SMOOTHER  
/* CCCCCCCCCCCCCCCCCCCCCCCCCCCCCCCCCCCCCCCCCCCCCCCCCCCCCCCCC
*  2012 12  5 20  0  0.00000000                                                 
P  1  -5798.057765  17977.006608 -18671.840378    285.949851                    
V  1 -21562.607100   9912.085687  16319.588782      0.019874                    
P  2  21694.520846 -14583.427475   2852.163630    410.837690                    
V  2   4977.753772   1722.044353 -31297.437612      0.010333                    
P  3 -10098.026943  17937.685350  16157.457949    137.718881                    
V  3  -4979.729195 -21215.311821  20069.729889      0.050989                    
P  4  24054.987704  -3549.740538 -11308.331450     66.510223                    
V  4 -10919.258890   9007.558929 -26417.848939      0.112041                    
P  5  13752.472516  -9038.457481  20846.488028   -370.982685                    
V  5  22192.379790  14583.234773  -8162.598382     -0.023679                    
P  6 -13857.418579  11638.209489  19431.794133    434.311692                    
V  6  -2369.734901 -24583.798489  13428.603972     -0.127115                    
P  7  10233.155642  11336.199406  21799.739274    153.617948                    
V  7 -24364.581785  12760.373051   4533.172726      0.044470                    
P  8  20588.138742   3361.979253  16885.557416      3.259806                    
V  8 -19133.490376   8541.949075  21185.760122      0.002607                    
P  9  13082.513426 -18274.197649 -14721.032132    204.537143                    
V  9  16199.220009  -7267.894784  24272.916622      0.026910                    
P 10  23809.931129   6959.613697   9766.839363    -61.041421                    
V 10   9195.878261   9162.102916 -27732.972130     -0.014760                    
P 11  -8374.449876  22148.547500 -12170.637371   -330.239611                    
V 11 -13727.389888   7623.763314  24467.043267     -0.038244                    
P 12  -3744.738289 -17921.276224 -19331.117454    105.299221                    
V 12  20871.269480  12646.442926 -15593.835930      0.020261                    
P 13   5339.818605  22790.587572  12306.467053    162.319874                    
V 13  -3845.982058  15484.185099 -26821.634164     -0.027293                    
P 14 -13800.330910  -7137.172830 -21366.566625    217.829672                    
V 14   3184.125045 -27342.038340   6874.866382      0.005856                    
P 15   4918.913672 -25113.688641   6608.596497   -101.420248                    
V 15   3373.718640   8502.559630  29984.934464     -0.010092                    
P 16 -13823.578506   7773.325149  21358.656565   -250.456814                    
V 16 -22037.860701 -15607.231304  -8272.925923     -0.004534                    
P 17  14442.300628   5859.751513 -21345.768856     72.173278                    
V 17  -2288.137130  27417.131725   5685.115449     -0.035901                    
P 18 -20060.099435 -17052.390272   5106.408744    227.960405                    
V 18   6861.755770    308.604867  29908.115233      0.018533                    
P 19  -8718.147545  23399.400689   8351.752582   -328.318611                    
V 19  -1595.809188 -11100.634927  29564.651640     -0.033496                    
P 20   5473.744835  18653.769982 -18297.764591     75.496640                    
V 20 -21020.016453  -9470.952948 -16016.497888      0.012234                    
P 21 -14619.065064  -9604.595549  20637.147555   -266.508875                    
V 21  21711.652547 -12484.095744   9264.449245     -0.023464                    
P 22 -24042.780812  -8662.809908  -7289.006633    152.714268                    
V 22  -6133.601649  -8114.192103  29006.649988      0.009191                    
P 23   -414.485394  26329.749664   1042.203674    137.036911                    
V 23  -3285.143918   1126.670574 -31908.942861     -0.038231                    
P 24   9615.627078 -18448.404316 -16502.619264      2.852921                    
V 24  19299.337891  -8413.037142  20657.776936     -0.006096                    
P 25 -15370.012095 -18483.277813 -11409.859955     54.788275                    
V 25  13368.196551   5715.258681 -27282.276669      0.021240                    
P 26  12368.694595 -17090.202379  15287.422758   -185.447737                    
V 26   -536.637458  20742.009358  23047.624928      0.135418                    
P 28  22963.602341  12813.867506  -3876.690218    211.175032                    
V 28   3445.012055   4859.875933  31573.370563      0.035810                    
P 29  -5673.153116 -23639.575838  10796.604502    384.349211                    
V 29   3344.564755 -13395.053539 -27663.604353      0.040035                    
P 30 -21881.518197    694.321215  14669.538743   -294.603308                    
V 30 -16355.451801 -10388.312507 -23367.712352      0.137759                    
P 31 -24617.046783   6914.891613  -7478.128434    290.637737                    
V 31   7758.947375  -6070.777977 -30122.516249      0.021127                    
P 32  -4630.962084  15342.527808 -21086.532168   -514.210882                    
V 32 -21977.125857 -15887.681067  -6177.195934     -0.034889                    
EOF
